HST                     
1 20580U 90037B   26065.09294664  .00008390  00000+0  27790-3 0  9990
2 20580  28.4707  64.5335 0001795  90.2676 269.8125 15.29414630772760
POLAR                   
1 23802U 96013A   26064.05696403  .00000171  00000+0  00000+0 0  9992
2 23802  79.7448 228.2423 6364650 212.6113  83.8068  1.29845804143502
SWAS                    
1 25560U 98071A   26065.61796180  .00005747  00000+0  37042-3 0  9991
2 25560  69.8956 131.8799 0003860  18.6787 341.4518 15.08858438481790
CXO                     
1 25867U 99040B   26066.24394024  .00000830  00000+0  00000+0 0  9997
2 25867  54.5001 119.7161 7997894 310.7431   0.4039  0.37807298 16943
XMM-NEWTON              
1 25989U 99066A   26067.62479432  .00000097  00000+0  00000+0 0  9995
2 25989  64.9887 284.2959 4710152  66.6833 359.9644  0.50132007 22505
TERRA                   
1 25994U 99068A   26065.83852976  .00000593  00000+0  12991-3 0  9999
2 25994  97.9599 119.3821 0002530 158.2541 261.4297 14.61011205394660
CLUSTER II-FM7 (SAMBA)  
1 26410U 00041A   26063.25310773  .00003639  00000+0  00000+0 0  9992
2 26410 148.9920  34.5676 8908777 250.6745 359.7226  0.44785609 19832
CLUSTER II-FM8 (TANGO)  
1 26464U 00045B   26049.06287974  .00004776  00000+0  00000+0 0  9997
2 26464 149.0711  33.5376 8890045 249.4570 359.4916  0.44405995 19769
ODIN                    
1 26702U 01007A   26065.51647981  .00055418  00000+0  72978-3 0  9993
2 26702  97.4078 101.4322 0004352 148.2779 211.8740 15.58268209373348
TIMED                   
1 26998U 01055B   26065.36702176  .00001903  00000+0  17752-3 0  9993
2 26998  74.0660  82.0081 0003007 279.5820  80.5025 14.95010007315456
CORIOLIS                
1 27640U 03001A   26065.45818010  .00000195  00000+0  11238-3 0  9991
2 27640  98.7162  73.9002 0014642 145.3692 214.8441 14.19911379199640
SORCE                   
1 27651U 03004A   26065.57640261  .00004619  00000+0  34660-3 0  9999
2 27651  39.9901 126.8460 0016240  31.2906 328.8852 15.03070095256453
MOST                    
1 27843U 03031D   26065.43125902  .00000115  00000+0  72811-4 0  9995
2 27843  98.7084  74.5777 0009758 182.9417 177.1704 14.21298201176113
SCISAT 1                
1 27858U 03036A   26065.84648726  .00001326  00000+0  17449-3 0  9995
2 27858  73.9320  14.6606 0005859 106.3746 253.8075 14.81305656216292
SWIFT                   
1 28485U 04047A   26065.79408072  .00049609  00000+0  59800-3 0  9990
2 28485  20.5529 249.2327 0003496 355.9744   4.0672 15.58982582170819
HINODE (SOLAR-B)        
1 29479U 06041A   26065.50531629  .00000979  00000+0  17725-3 0  9991
2 29479  98.0626  83.1473 0016204 252.4690 107.4745 14.68468203 39801
SHIJIAN-6 02A (SJ-6 02A)
1 29505U 06046A   26065.87259703  .00003826  00000+0  20482-3 0  9994
2 29505  97.6497 106.1942 0004569 119.9835 240.1851 15.15640968 56768
